{
    "links": {
        "self": "http://www.neowsapp.com/rest/v1/neo/3838901?api_key=iIulBulltgU6a56xZRHN4H3l9WmuAYTsLGpBGhQ2"
    },
    "id": "3838901",
    "neo_reference_id": "3838901",
    "name": "(2019 EZ)",
    "designation": "2019 EZ",
    "nasa_jpl_url": "http://ssd.jpl.nasa.gov/sbdb.cgi?sstr=3838901",
    "absolute_magnitude_h": 27.3,
    "estimated_diameter": {
        "kilometers": {
            "estimated_diameter_min": 0.0092162655,
            "estimated_diameter_max": 0.0206081961
        },
        "meters": {
            "estimated_diameter_min": 9.216265485,
            "estimated_diameter_max": 20.6081961232
        },
        "miles": {
            "estimated_diameter_min": 0.0057267201,
            "estimated_diameter_max": 0.0128053354
        },
        "feet": {
            "estimated_diameter_min": 30.2370924539,
            "estimated_diameter_max": 67.6121941689
        }
    },
    "is_potentially_hazardous_asteroid": false,
    "close_approach_data": [
        {
            "close_approach_date": "2019-03-06",
            "close_approach_date_full": "2019-Mar-06 12:29",
            "epoch_date_close_approach": 1551875340000,
            "relative_velocity": {
                "kilometers_per_second": "13.8787411865",
                "kilometers_per_hour": "49963.4682714241",
                "miles_per_hour": "31045.3561600968"
            },
            "miss_distance": {
                "astronomical": "0.007164556",
                "lunar": "2.787012284",
                "kilometers": "1071802.31709572",
                "miles": "665987.077612136"
            },
            "orbiting_body": "Earth"
        },
        {
            "close_approach_date": "2019-03-06",
            "close_approach_date_full": "2019-Mar-06 21:08",
            "epoch_date_close_approach": 1551906480000,
            "relative_velocity": {
                "kilometers_per_second": "14.2217678111",
                "kilometers_per_hour": "51198.3641198275",
                "miles_per_hour": "31812.6724165673"
            },
            "miss_distance": {
                "astronomical": "0.0062433967",
                "lunar": "2.4286813163",
                "kilometers": "933998.847885029",
                "miles": "580359.9724262402"
            },
            "orbiting_body": "Moon"
        }
    ],
    "orbital_data": {
        "orbit_id": "1",
        "orbit_determination_date": "2019-03-06 08:12:07",
        "first_observation_date": "2019-03-04",
        "last_observation_date": "2019-03-06",
        "data_arc_in_days": 2,
        "observations_used": 16,
        "orbit_uncertainty": "7",
        "minimum_orbit_intersection": ".00133743",
        "jupiter_tisserand_invariant": "3.798",
        "epoch_osculation": "2459000.5",
        "eccentricity": ".5553956236700066",
        "semi_major_axis": "1.849176639886084",
        "inclination": "6.923227585941724",
        "ascending_node_longitude": "345.3244135026497",
        "orbital_period": "918.4722186761801",
        "perihelion_distance": ".8221520267005452",
        "perihelion_argument": "237.9738095212095",
        "aphelion_distance": "2.876201253071623",
        "perihelion_time": "2458589.235258404390",
        "mean_anomaly": "161.1973709861533",
        "mean_motion": ".3919552411926821",
        "equinox": "J2000",
        "orbit_class": {
            "orbit_class_type": "APO",
            "orbit_class_description": "Near-Earth asteroid orbits which cross the Earth’s orbit similar to that of 1862 Apollo",
            "orbit_class_range": "a (semi-major axis) > 1.0 AU; q (perihelion) < 1.017 AU"
        }
    },
    "is_sentry_object": false
}